CCSDS_OMM_VERS = 2.0
CREATION_DATE  = 
ORIGINATOR     = 

OBJECT_NAME    = STARLINK-36339
OBJECT_ID      = 2026-003G
CENTER_NAME    = EARTH
REF_FRAME      = TEME
TIME_SYSTEM    = UTC
MEAN_ELEMENT_THEORY = SGP/SGP4

EPOCH          = 2026-02-01T06:00:02.000160
MEAN_MOTION    = 15.50716142
ECCENTRICITY   = .00014785
INCLINATION    = 42.9993
RA_OF_ASC_NODE = 74.6423
ARG_OF_PERICENTER = 271.6016
MEAN_ANOMALY   = 333.2183

EPHEMERIS_TYPE = 0
CLASSIFICATION_TYPE = U
NORAD_CAT_ID   = 67340
ELEMENT_SET_NO = 999
REV_AT_EPOCH   = 481
BSTAR          = -.58559303E-2
MEAN_MOTION_DOT = -.331366E-2
MEAN_MOTION_DDOT = 0

CCSDS_OMM_VERS = 2.0
CREATION_DATE  = 
ORIGINATOR     = 

OBJECT_NAME    = STARLINK-36453
OBJECT_ID      = 2026-003H
CENTER_NAME    = EARTH
REF_FRAME      = TEME
TIME_SYSTEM    = UTC
MEAN_ELEMENT_THEORY = SGP/SGP4

EPOCH          = 2026-02-01T06:00:02.000160
MEAN_MOTION    = 15.50717503
ECCENTRICITY   = .00015902
INCLINATION    = 42.9994
RA_OF_ASC_NODE = 74.6367
ARG_OF_PERICENTER = 272.4125
MEAN_ANOMALY   = 334.3320

EPHEMERIS_TYPE = 0
CLASSIFICATION_TYPE = U
NORAD_CAT_ID   = 67341
ELEMENT_SET_NO = 999
REV_AT_EPOCH   = 481
BSTAR          = -.61281958E-2
MEAN_MOTION_DOT = -.346135E-2
MEAN_MOTION_DDOT = 0

CCSDS_OMM_VERS = 2.0
CREATION_DATE  = 
ORIGINATOR     = 

OBJECT_NAME    = STARLINK-36432
OBJECT_ID      = 2026-003J
CENTER_NAME    = EARTH
REF_FRAME      = TEME
TIME_SYSTEM    = UTC
MEAN_ELEMENT_THEORY = SGP/SGP4

EPOCH          = 2026-02-01T06:00:02.000160
MEAN_MOTION    = 15.50739902
ECCENTRICITY   = .00012128
INCLINATION    = 42.9994
RA_OF_ASC_NODE = 74.6327
ARG_OF_PERICENTER = 299.6094
MEAN_ANOMALY   = 309.0405

EPHEMERIS_TYPE = 0
CLASSIFICATION_TYPE = U
NORAD_CAT_ID   = 67342
ELEMENT_SET_NO = 999
REV_AT_EPOCH   = 480
BSTAR          = -.51656772E-2
MEAN_MOTION_DOT = -.293966E-2
MEAN_MOTION_DDOT = 0

CCSDS_OMM_VERS = 2.0
CREATION_DATE  = 
ORIGINATOR     = 

OBJECT_NAME    = STARLINK-36458
OBJECT_ID      = 2026-003K
CENTER_NAME    = EARTH
REF_FRAME      = TEME
TIME_SYSTEM    = UTC
MEAN_ELEMENT_THEORY = SGP/SGP4

EPOCH          = 2026-02-01T06:00:02.000160
MEAN_MOTION    = 15.50710302
ECCENTRICITY   = .00014336
INCLINATION    = 42.9994
RA_OF_ASC_NODE = 74.6277
ARG_OF_PERICENTER = 272.7640
MEAN_ANOMALY   = 337.8091

EPHEMERIS_TYPE = 0
CLASSIFICATION_TYPE = U
NORAD_CAT_ID   = 67343
ELEMENT_SET_NO = 999
REV_AT_EPOCH   = 481
BSTAR          = -.58394854E-2
MEAN_MOTION_DOT = -.330405E-2
MEAN_MOTION_DDOT = 0

CCSDS_OMM_VERS = 2.0
CREATION_DATE  = 
ORIGINATOR     = 

OBJECT_NAME    = STARLINK-36422
OBJECT_ID      = 2026-003L
CENTER_NAME    = EARTH
REF_FRAME      = TEME
TIME_SYSTEM    = UTC
MEAN_ELEMENT_THEORY = SGP/SGP4

EPOCH          = 2026-02-01T06:00:02.000160
MEAN_MOTION    = 15.50746329
ECCENTRICITY   = .00011253
INCLINATION    = 42.9996
RA_OF_ASC_NODE = 74.6214
ARG_OF_PERICENTER = 301.9524
MEAN_ANOMALY   = 310.5347

EPHEMERIS_TYPE = 0
CLASSIFICATION_TYPE = U
NORAD_CAT_ID   = 67344
ELEMENT_SET_NO = 999
REV_AT_EPOCH   = 480
BSTAR          = -.55318595E-2
MEAN_MOTION_DOT = -.314052E-2
MEAN_MOTION_DDOT = 0

CCSDS_OMM_VERS = 2.0
CREATION_DATE  = 
ORIGINATOR     = 

OBJECT_NAME    = STARLINK-35676
OBJECT_ID      = 2026-003M
CENTER_NAME    = EARTH
REF_FRAME      = TEME
TIME_SYSTEM    = UTC
MEAN_ELEMENT_THEORY = SGP/SGP4

EPOCH          = 2026-02-01T06:00:02.000160
MEAN_MOTION    = 15.50714223
ECCENTRICITY   = .00015744
INCLINATION    = 42.9993
RA_OF_ASC_NODE = 74.6178
ARG_OF_PERICENTER = 267.7278
MEAN_ANOMALY   = 346.6759

EPHEMERIS_TYPE = 0
CLASSIFICATION_TYPE = U
NORAD_CAT_ID   = 67345
ELEMENT_SET_NO = 999
REV_AT_EPOCH   = 480
BSTAR          = -.57760998E-2
MEAN_MOTION_DOT = -.327015E-2
MEAN_MOTION_DDOT = 0

CCSDS_OMM_VERS = 2.0
CREATION_DATE  = 
ORIGINATOR     = 

OBJECT_NAME    = STARLINK-36472
OBJECT_ID      = 2026-003N
CENTER_NAME    = EARTH
REF_FRAME      = TEME
TIME_SYSTEM    = UTC
MEAN_ELEMENT_THEORY = SGP/SGP4

EPOCH          = 2026-02-01T06:00:02.000160
MEAN_MOTION    = 15.50708815
ECCENTRICITY   = .0001416
INCLINATION    = 42.9994
RA_OF_ASC_NODE = 74.6129
ARG_OF_PERICENTER = 272.0263
MEAN_ANOMALY   = 344.2971

EPHEMERIS_TYPE = 0
CLASSIFICATION_TYPE = U
NORAD_CAT_ID   = 67346
ELEMENT_SET_NO = 999
REV_AT_EPOCH   = 480
BSTAR          = -.58597491E-2
MEAN_MOTION_DOT = -.331486E-2
MEAN_MOTION_DDOT = 0

CCSDS_OMM_VERS = 2.0
CREATION_DATE  = 
ORIGINATOR     = 

OBJECT_NAME    = STARLINK-36420
OBJECT_ID      = 2026-003P
CENTER_NAME    = EARTH
REF_FRAME      = TEME
TIME_SYSTEM    = UTC
MEAN_ELEMENT_THEORY = SGP/SGP4

EPOCH          = 2026-02-01T06:00:02.000160
MEAN_MOTION    = 15.50711831
ECCENTRICITY   = .00014889
INCLINATION    = 42.9992
RA_OF_ASC_NODE = 74.6030
ARG_OF_PERICENTER = 270.4625
MEAN_ANOMALY   = 349.6895

EPHEMERIS_TYPE = 0
CLASSIFICATION_TYPE = U
NORAD_CAT_ID   = 67347
ELEMENT_SET_NO = 999
REV_AT_EPOCH   = 481
BSTAR          = -.58154102E-2
MEAN_MOTION_DOT = -.329118E-2
MEAN_MOTION_DDOT = 0

CCSDS_OMM_VERS = 2.0
CREATION_DATE  = 
ORIGINATOR     = 

OBJECT_NAME    = STARLINK-36467
OBJECT_ID      = 2026-003Q
CENTER_NAME    = EARTH
REF_FRAME      = TEME
TIME_SYSTEM    = UTC
MEAN_ELEMENT_THEORY = SGP/SGP4

EPOCH          = 2026-02-01T06:00:02.000160
MEAN_MOTION    = 15.50714213
ECCENTRICITY   = .00015796
INCLINATION    = 42.9993
RA_OF_ASC_NODE = 74.6085
ARG_OF_PERICENTER = 267.7379
MEAN_ANOMALY   = 350.4984

EPHEMERIS_TYPE = 0
CLASSIFICATION_TYPE = U
NORAD_CAT_ID   = 67348
ELEMENT_SET_NO = 999
REV_AT_EPOCH   = 481
BSTAR          = -.58027805E-2
MEAN_MOTION_DOT = -.328464E-2
MEAN_MOTION_DDOT = 0

CCSDS_OMM_VERS = 2.0
CREATION_DATE  = 
ORIGINATOR     = 

OBJECT_NAME    = STARLINK-36457
OBJECT_ID      = 2026-003R
CENTER_NAME    = EARTH
REF_FRAME      = TEME
TIME_SYSTEM    = UTC
MEAN_ELEMENT_THEORY = SGP/SGP4

EPOCH          = 2026-02-01T06:00:02.000160
MEAN_MOTION    = 15.50710880
ECCENTRICITY   = .00014028
INCLINATION    = 42.9991
RA_OF_ASC_NODE = 74.5982
ARG_OF_PERICENTER = 266.8033
MEAN_ANOMALY   = 355.2691

EPHEMERIS_TYPE = 0
CLASSIFICATION_TYPE = U
NORAD_CAT_ID   = 67349
ELEMENT_SET_NO = 999
REV_AT_EPOCH   = 481
BSTAR          = -.59354779E-2
MEAN_MOTION_DOT = -.335616E-2
MEAN_MOTION_DDOT = 0

CCSDS_OMM_VERS = 2.0
CREATION_DATE  = 
ORIGINATOR     = 

OBJECT_NAME    = STARLINK-36475
OBJECT_ID      = 2026-003S
CENTER_NAME    = EARTH
REF_FRAME      = TEME
TIME_SYSTEM    = UTC
MEAN_ELEMENT_THEORY = SGP/SGP4

EPOCH          = 2026-02-01T06:00:02.000160
MEAN_MOTION    = 15.50708388
ECCENTRICITY   = .00015258
INCLINATION    = 42.9991
RA_OF_ASC_NODE = 74.5927
ARG_OF_PERICENTER = 271.5197
MEAN_ANOMALY   = 352.4703

EPHEMERIS_TYPE = 0
CLASSIFICATION_TYPE = U
NORAD_CAT_ID   = 67350
ELEMENT_SET_NO = 999
REV_AT_EPOCH   = 480
BSTAR          = -.58360564E-2
MEAN_MOTION_DOT = -.330202E-2
MEAN_MOTION_DDOT = 0

CCSDS_OMM_VERS = 2.0
CREATION_DATE  = 
ORIGINATOR     = 

OBJECT_NAME    = STARLINK-36478
OBJECT_ID      = 2026-003T
CENTER_NAME    = EARTH
REF_FRAME      = TEME
TIME_SYSTEM    = UTC
MEAN_ELEMENT_THEORY = SGP/SGP4

EPOCH          = 2026-02-01T06:00:02.000160
MEAN_MOTION    = 15.50754727
ECCENTRICITY   = .00010108
INCLINATION    = 42.9991
RA_OF_ASC_NODE = 74.5888
ARG_OF_PERICENTER = 308.6841
MEAN_ANOMALY   = 317.2186

EPHEMERIS_TYPE = 0
CLASSIFICATION_TYPE = U
NORAD_CAT_ID   = 67351
ELEMENT_SET_NO = 999
REV_AT_EPOCH   = 480
BSTAR          = -.57867991E-2
MEAN_MOTION_DOT = -.328025E-2
MEAN_MOTION_DDOT = 0

