STARLINK-36339          
1 67340U 26003G   26032.25002315 -.00331366  00000+0 -58559-2 0  9999
2 67340  42.9993  74.6423 0001478 271.6016 333.2183 15.50716142  4815
STARLINK-36453          
1 67341U 26003H   26032.25002315 -.00346135  00000+0 -61282-2 0  9997
2 67341  42.9994  74.6367 0001590 272.4125 334.3320 15.50717503  4816
STARLINK-36432          
1 67342U 26003J   26032.25002315 -.00293966  00000+0 -51657-2 0  9996
2 67342  42.9994  74.6327 0001212 299.6094 309.0405 15.50739902  4809
STARLINK-36458          
1 67343U 26003K   26032.25002315 -.00330405  00000+0 -58395-2 0  9993
2 67343  42.9994  74.6277 0001433 272.7640 337.8091 15.50710302  4812
STARLINK-36422          
1 67344U 26003L   26032.25002315 -.00314052  00000+0 -55319-2 0  9997
2 67344  42.9996  74.6214 0001125 301.9524 310.5347 15.50746329  4809
STARLINK-35676          
1 67345U 26003M   26032.25002315 -.00327015  00000+0 -57761-2 0  9994
2 67345  42.9993  74.6178 0001574 267.7278 346.6759 15.50714223  4804
STARLINK-36472          
1 67346U 26003N   26032.25002315 -.00331486  00000+0 -58597-2 0  9990
2 67346  42.9994  74.6129 0001416 272.0263 344.2971 15.50708815  4800
STARLINK-36420          
1 67347U 26003P   26032.25002315 -.00329118  00000+0 -58154-2 0  9999
2 67347  42.9992  74.6030 0001488 270.4625 349.6895 15.50711831  4810
STARLINK-36467          
1 67348U 26003Q   26032.25002315 -.00328464  00000+0 -58028-2 0  9993
2 67348  42.9993  74.6085 0001579 267.7379 350.4984 15.50714213  4814
STARLINK-36457          
1 67349U 26003R   26032.25002315 -.00335616  00000+0 -59355-2 0  9995
2 67349  42.9991  74.5982 0001402 266.8033 355.2691 15.50710880  4814
STARLINK-36475          
1 67350U 26003S   26032.25002315 -.00330202  00000+0 -58361-2 0  9999
2 67350  42.9991  74.5927 0001525 271.5197 352.4703 15.50708388  4807
STARLINK-36478          
1 67351U 26003T   26032.25002315 -.00328025  00000+0 -57868-2 0  9991
2 67351  42.9991  74.5888 0001010 308.6841 317.2186 15.50754727  4803
